Province|City|District or County|Street name
上海市|上海市|普陀区|长寿路
上海市|上海市|普陀区|西康路
江苏省|南京市|鼓楼区|颐和路
江苏省|南京市|鼓楼区|琅琊路
江苏省|扬州市|广陵区|兴丰路
江苏省|扬州市|广陵区|田桥路
江苏省|徐州市|云龙区|复兴北路
江苏省|徐州市|云龙区|镇平街
江苏省|宿迁市|宿城区|红海路
江苏省|宿迁市|宿城区|洪泽湖西路
江苏省|盐城市|亭湖区|青年路
江苏省|盐城市|亭湖区|五星路
江苏省|南通市|通州区|龙腾路
江苏省|南通市|通州区|振兴东路
江苏省|泰州市|海陵区|青年南路
江苏省|泰州市|海陵区|永定东路
江苏省|苏州市|平江区|广济北路
江苏省|苏州市|平江区|北环西路
江苏省|常州市|武进区|永胜中路
江苏省|常州市|武进区|小庙路
江苏省|无锡市|崇安区|兴昌北路
江苏省|无锡市|崇安区|通勤路
江苏省|镇江市|丹徒区|站前北路
江苏省|镇江市|丹徒区|五州山路
浙江省|杭州市|上城区|江城路
浙江省|杭州市|上城区|望江路
浙江省|宁波市|海曙区|马园路
浙江省|宁波市|海曙区|长春路
浙江省|温州市|鹿城区|吴桥路
浙江省|温州市|鹿城区|宽带路
浙江省|绍兴市|越城区|二环北路
浙江省|绍兴市|越城区|中兴北路
浙江省|湖州市|南浔区|强华路
浙江省|湖州市|南浔区|东金西路
浙江省|嘉兴市|南湖区|广益路
浙江省|嘉兴市|南湖区|新气象路
浙江省|金华市|婺城区|后丰路
浙江省|金华市|婺城区|迪耳路
浙江省|衢州市|柯城区|五环路
浙江省|衢州市|柯城区|百汇路
浙江省|舟山市|定海区|千岛路
浙江省|舟山市|定海区|怡岛路
浙江省|台州市|黄岩区|黄椒路
浙江省|台州市|黄岩区|二环东路
浙江省|丽水市|莲都区|人民路
浙江省|丽水市|莲都区|花园路
福建省|福州市|仓山区|双湖三路
福建省|福州市|仓山区|高兴路
福建省|厦门市|思明区|莲前西路
福建省|厦门市|思明区|卧龙路
福建省|莆田市|涵江区|国欢西路
福建省|莆田市|涵江区|滨海大道
福建省|宁德市|蕉城区|天湖西路
福建省|宁德市|蕉城区|蕉城南路
福建省|泉州市|丰泽区|东湖街
福建省|泉州市|丰泽区|宝洲路
福建省|漳州市|芗城区|胜利西路
福建省|漳州市|芗城区|新华北路
福建省|龙岩市|新罗区|龙腾北路
福建省|龙岩市|新罗区|凤凰北路
福建省|三明市|三元区|下洋三路
福建省|三明市|三元区|江滨南路
福建省|南平市|延平区|内环路
福建省|南平市|延平区|进步路
广东省|广州市|越秀区|府学西街
广东省|广州市|越秀区|文德北路
广东省|深圳市|罗湖区|建设路
广东省|深圳市|罗湖区|船步路
广东省|珠海市|金湾区|昌盛路
广东省|珠海市|金湾区|情侣南路
广东省|汕头市|龙湖区|泰山南路
广东省|汕头市|龙湖区|金沙东路
广东省|佛山市|顺德区|县东路
广东省|佛山市|顺德区|文秀路
广东省|韶关市|武江区|韶关大道
广东省|韶关市|武江区|百旺路
广东省|湛江市|霞山区|解放东路
广东省|湛江市|霞山区|民享路
广东省|肇庆市|端州区|星湖大道
广东省|肇庆市|端州区|棠岗路
广东省|江门市|蓬江区|建设二路
广东省|江门市|蓬江区|迎宾大道中
广东省|惠州市|慧城区|花园中路
广东省|惠州市|慧城区|鹅岭西路
云南省|昆明市|西山区|大观路
云南省|昆明市|西山区|西华北路
云南省|曲靖市|麒麟区|翠峰东路
云南省|曲靖市|麒麟区|南宁西路
云南省|玉溪市|红塔区|红塔山路
云南省|玉溪市|红塔区|凤凰路路
云南省|昭通市|昭阳区|菁门路
云南省|昭通市|昭阳区|麟凤路
云南省|保山市|隆阳区|九龙路
云南省|保山市|隆阳区|人民路
云南省|丽江市|古城区|太和路
云南省|丽江市|古城区|康仲路
云南省|普洱市|思茅区|边城路
云南省|普洱市|思茅区|振兴大道
云南省|临沧市|临翔区|文华路
云南省|临沧市|临翔区|团结路
北京市|北京市|朝阳区|外环路
北京市|北京市|朝阳区|通顺路
安徽省|合肥市|瑶海区|临泉路
安徽省|合肥市|瑶海区|胜利路
安徽省|芜湖市|镜湖区|文化路
安徽省|芜湖市|镜湖区|梅莲路
安徽省|蚌埠市|龙子湖区|国强路
安徽省|蚌埠市|龙子湖区|沿淮路
安徽省|淮南市|田家庵区|洞山路
安徽省|淮南市|田家庵区|淮舜南路
安徽省|马鞍山市|花山区|红旗北路
安徽省|马鞍山市|花山区|车站路
安徽省|淮北市|相山区|古城路
安徽省|淮北市|相山区|孟山北路
安徽省|铜陵市|铜官区|谢垅路
安徽省|铜陵市|铜官区|何村路
安徽省|安庆市|迎江区|龙山路
安徽省|安庆市|迎江区|玉琳路
安徽省|黄山市|屯溪区|雀山路
安徽省|黄山市|屯溪区|北海路
安徽省|巢湖市|居巢区|安成路
安徽省|巢湖市|居巢区|东塘路
湖南省|长沙市|开福区|芙蓉中路
湖南省|长沙市|开福区|八一路
湖南省|株洲市|天元区|衡山西路
湖南省|株洲市|天元区|西环路
湖南省|湘潭市|雨湖区|建设北路
湖南省|湘潭市|雨湖区|韶山中路
湖南省|衡阳市|石鼓区|常胜路
湖南省|衡阳市|石鼓区|向农路
湖南省|邵阳市|大祥区|西湖路
湖南省|邵阳市|大祥区|敏州西路
湖南省|岳阳市|岳阳楼区|白石岭南路
湖南省|岳阳市|岳阳楼区|民兴路
湖南省|常德市|武陵区|建设路
湖南省|常德市|武陵区|人民路
湖南省|张家界市|永定区|子午路
湖南省|张家界市|永定区|迎宾路
湖北省|武汉市|武昌区|中南路
湖北省|武汉市|武昌区|洪山路
湖北省|黄石市|石港区|黄石大道
湖北省|黄石市|石港区|公园路
湖北省|襄樊市|襄阳区|神龙路
湖北省|襄樊市|襄阳区|新城路
湖北省|十堰市|张湾区|京东路
湖北省|十堰市|张湾区|浙江路
湖北省|荆州市|沙市区|共青路
湖北省|荆州市|沙市区|东环路
湖北省|宜昌市|伍家岗区|体育场路
湖北省|宜昌市|伍家岗区|东山大道
湖北省|孝感市|孝南区|长征路
湖北省|孝感市|孝南区|长征二路
湖北省|黄冈市|黄州区|七一路
湖北省|黄冈市|黄州区|胜利街
四川省|成都市|武侯区|共和路
四川省|成都市|武侯区|红瓦寺街
四川省|自贡市|大安区|龙井路
四川省|自贡市|大安区|仁和路
四川省|攀枝花市|东区|新宏路
四川省|攀枝花市|东区|机场路
四川省|泸州市|江阳区|江阳西路
四川省|泸州市|江阳区|二环路
四川省|德阳市|旌阳区|长江东路
四川省|德阳市|旌阳区|庐山北路
四川省|绵阳市|涪城区|绵兴东路
四川省|绵阳市|涪城区|火炬西街
四川省|广元市|利州区|育才路
四川省|广元市|利州区|利州东路
四川省|南充市|顺庆区|仪凤街
四川省|南充市|顺庆区|丝绸路
北京市|北京市|东城区|东四北大街
北京市|北京市|东城区|王府井大街
北京市|北京市|西城区|月坛北街
北京市|北京市|西城区|复兴门
北京市|北京市|海淀区|温泉路
北京市|北京市|海淀区|上庄路
北京市|北京市|丰台区|康辛路
北京市|北京市|丰台区|南五环路
北京市|北京市|石景山区|杨庄北区中街
北京市|北京市|石景山区|杨庄路
上海市|上海市|浦东新区|下盐路
上海市|上海市|浦东新区|人民东路
上海市|上海市|徐汇区|上中路
上海市|上海市|徐汇区|中环路
上海市|上海市|长宁区|天山西路
上海市|上海市|长宁区|宁虹路
上海市|上海市|闸北区|大宁路
上海市|上海市|闸北区|场中路
上海市|上海市|虹口区|广中路
上海市|上海市|虹口区|水电路
上海市|上海市|杨浦区|控江路
上海市|上海市|杨浦区|平凉路
上海市|上海市|卢湾区|建国东路
上海市|上海市|卢湾区|瑞金二路
上海市|上海市|静安区|南京西路
上海市|上海市|静安区|昌平路
上海市|上海市|宝山区|潘泾路
上海市|上海市|宝山区|宝杨路
上海市|上海市|嘉定区|惠平路
上海市|上海市|嘉定区|伊宁路
